{
  "norad_id": 63821,
  "name": "STARLINK-34047",
  "history": [
    {
      "epoch": "2026-03-28T15:43:37.843104",
      "apogee_km": 484.02946799165693,
      "perigee_km": 482.01558044810736,
      "latitude_deg": 31.3682875447903,
      "longitude_deg": -94.99128544004634,
      "semi_major_axis_km": 6861.159524219882,
      "eccentricity": 0.00014676,
      "inclination_deg": 43.004,
      "raan_deg": 65.5731,
      "arg_perigee_deg": 272.2608,
      "mean_anomaly_deg": 87.8076,
      "mean_motion_rev_day": 15.27588874
    }
  ]
}