{"fetched_at":"2026-03-29T16:36:15Z","count":15609,"tles":[{"name":"STARLINK-34047","line1":"1 63821U 25092T   26087.65529911  .00038762  00000+0  14103-2 0  9995","line2":"2 63821  43.0040  65.5731 0001467 272.2608  87.8076 15.27588874 51563","category":"Starlink"}]}